{
  "norad_id": 33051,
  "name": "ZHONGXING-9",
  "history": [
    {
      "epoch": "2026-03-27T20:23:58.058592Z",
      "apogee_km": 35820.78724169306,
      "perigee_km": 35753.96923631443,
      "latitude_deg": 0.39557010387333813,
      "longitude_deg": 92.29445971680101,
      "height_km": 35803.62439881679,
      "semi_major_axis_km": 42165.51523900375,
      "eccentricity": 0.00079233,
      "inclination_deg": 0.5604,
      "raan_deg": 86.3926,
      "arg_perigee_deg": 257.1679,
      "mean_anomaly_deg": 240.0597,
      "mean_motion_rev_day": 1.00268991
    }
  ]
}